CCSDS_OMM_VERS = 2.0
CREATION_DATE  = 
ORIGINATOR     = 

OBJECT_NAME    = SL-4 R/B
OBJECT_ID      = 2014-021B
CENTER_NAME    = EARTH
REF_FRAME      = TEME
TIME_SYSTEM    = UTC
MEAN_ELEMENT_THEORY = SGP/SGP4

EPOCH          = 2025-12-03T12:14:43.293120
MEAN_MOTION    = 15.36308154
ECCENTRICITY   = .0102583
INCLINATION    = 51.6074
RA_OF_ASC_NODE = 85.4364
ARG_OF_PERICENTER = 113.0130
MEAN_ANOMALY   = 248.1711

EPHEMERIS_TYPE = 0
CLASSIFICATION_TYPE = U
NORAD_CAT_ID   = 39679
ELEMENT_SET_NO = 999
REV_AT_EPOCH   = 64147
BSTAR          = .45499E-3
MEAN_MOTION_DOT = .19126E-3
MEAN_MOTION_DDOT = 0

CCSDS_OMM_VERS = 2.0
CREATION_DATE  = 
ORIGINATOR     = 

OBJECT_NAME    = ALOS-2
OBJECT_ID      = 2014-029A
CENTER_NAME    = EARTH
REF_FRAME      = TEME
TIME_SYSTEM    = UTC
MEAN_ELEMENT_THEORY = SGP/SGP4

EPOCH          = 2025-12-03T13:04:39.315072
MEAN_MOTION    = 14.79450558
ECCENTRICITY   = .0001522
INCLINATION    = 97.9237
RA_OF_ASC_NODE = 72.5221
ARG_OF_PERICENTER = 108.6147
MEAN_ANOMALY   = 251.5230

EPHEMERIS_TYPE = 0
CLASSIFICATION_TYPE = U
NORAD_CAT_ID   = 39766
ELEMENT_SET_NO = 999
REV_AT_EPOCH   = 62265
BSTAR          = .41575E-3
MEAN_MOTION_DOT = .3053E-4
MEAN_MOTION_DDOT = 0

CCSDS_OMM_VERS = 2.0
CREATION_DATE  = 
ORIGINATOR     = 

OBJECT_NAME    = YAOGAN-29
OBJECT_ID      = 2015-069A
CENTER_NAME    = EARTH
REF_FRAME      = TEME
TIME_SYSTEM    = UTC
MEAN_ELEMENT_THEORY = SGP/SGP4

EPOCH          = 2025-12-03T20:16:55.900416
MEAN_MOTION    = 14.82866516
ECCENTRICITY   = .0000728
INCLINATION    = 98.0228
RA_OF_ASC_NODE = 0.9879
ARG_OF_PERICENTER = 5.6766
MEAN_ANOMALY   = 354.4455

EPHEMERIS_TYPE = 0
CLASSIFICATION_TYPE = U
NORAD_CAT_ID   = 41038
ELEMENT_SET_NO = 999
REV_AT_EPOCH   = 54167
BSTAR          = .10616E-3
MEAN_MOTION_DOT = .806E-5
MEAN_MOTION_DDOT = 0

CCSDS_OMM_VERS = 2.0
CREATION_DATE  = 
ORIGINATOR     = 

OBJECT_NAME    = ASTRO-H (HITOMI)
OBJECT_ID      = 2016-012A
CENTER_NAME    = EARTH
REF_FRAME      = TEME
TIME_SYSTEM    = UTC
MEAN_ELEMENT_THEORY = SGP/SGP4

EPOCH          = 2025-12-03T11:56:38.663808
MEAN_MOTION    = 15.09257809
ECCENTRICITY   = .0009476
INCLINATION    = 31.0001
RA_OF_ASC_NODE = 256.9504
ARG_OF_PERICENTER = 84.7657
MEAN_ANOMALY   = 275.4062

EPHEMERIS_TYPE = 0
CLASSIFICATION_TYPE = U
NORAD_CAT_ID   = 41337
ELEMENT_SET_NO = 999
REV_AT_EPOCH   = 53768
BSTAR          = .30552E-3
MEAN_MOTION_DOT = .5082E-4
MEAN_MOTION_DDOT = 0

CCSDS_OMM_VERS = 2.0
CREATION_DATE  = 
ORIGINATOR     = 

OBJECT_NAME    = HXMT (HUIYAN)
OBJECT_ID      = 2017-034A
CENTER_NAME    = EARTH
REF_FRAME      = TEME
TIME_SYSTEM    = UTC
MEAN_ELEMENT_THEORY = SGP/SGP4

EPOCH          = 2025-12-03T19:57:07.618752
MEAN_MOTION    = 15.16132597
ECCENTRICITY   = .0032797
INCLINATION    = 43.0124
RA_OF_ASC_NODE = 189.0607
ARG_OF_PERICENTER = 346.4273
MEAN_ANOMALY   = 13.5690

EPHEMERIS_TYPE = 0
CLASSIFICATION_TYPE = U
NORAD_CAT_ID   = 42758
ELEMENT_SET_NO = 999
REV_AT_EPOCH   = 46798
BSTAR          = .35925E-3
MEAN_MOTION_DOT = .6913E-4
MEAN_MOTION_DDOT = 0

CCSDS_OMM_VERS = 2.0
CREATION_DATE  = 
ORIGINATOR     = 

OBJECT_NAME    = CZ-2C R/B
OBJECT_ID      = 2018-054D
CENTER_NAME    = EARTH
REF_FRAME      = TEME
TIME_SYSTEM    = UTC
MEAN_ELEMENT_THEORY = SGP/SGP4

EPOCH          = 2025-12-03T03:37:09.336000
MEAN_MOTION    = 15.71657055
ECCENTRICITY   = .00175269
INCLINATION    = 35.1341
RA_OF_ASC_NODE = 245.8114
ARG_OF_PERICENTER = 42.6186
MEAN_ANOMALY   = 317.5903

EPHEMERIS_TYPE = 0
CLASSIFICATION_TYPE = U
NORAD_CAT_ID   = 43521
ELEMENT_SET_NO = 999
REV_AT_EPOCH   = 41354
BSTAR          = .85487E-3
MEAN_MOTION_DOT = .116887E-2
MEAN_MOTION_DDOT = 0

CCSDS_OMM_VERS = 2.0
CREATION_DATE  = 
ORIGINATOR     = 

OBJECT_NAME    = SAOCOM 1A
OBJECT_ID      = 2018-076A
CENTER_NAME    = EARTH
REF_FRAME      = TEME
TIME_SYSTEM    = UTC
MEAN_ELEMENT_THEORY = SGP/SGP4

EPOCH          = 2025-12-03T19:52:20.775072
MEAN_MOTION    = 14.82161724
ECCENTRICITY   = .0001561
INCLINATION    = 97.8847
RA_OF_ASC_NODE = 162.3800
ARG_OF_PERICENTER = 86.2585
MEAN_ANOMALY   = 273.8807

EPHEMERIS_TYPE = 0
CLASSIFICATION_TYPE = U
NORAD_CAT_ID   = 43641
ELEMENT_SET_NO = 999
REV_AT_EPOCH   = 38716
BSTAR          = .10977E-3
MEAN_MOTION_DOT = .822E-5
MEAN_MOTION_DDOT = 0

CCSDS_OMM_VERS = 2.0
CREATION_DATE  = 
ORIGINATOR     = 

OBJECT_NAME    = H-2A R/B
OBJECT_ID      = 2018-084L
CENTER_NAME    = EARTH
REF_FRAME      = TEME
TIME_SYSTEM    = UTC
MEAN_ELEMENT_THEORY = SGP/SGP4

EPOCH          = 2025-12-03T18:34:54.056928
MEAN_MOTION    = 15.36875171
ECCENTRICITY   = .0028073
INCLINATION    = 98.8775
RA_OF_ASC_NODE = 169.9979
ARG_OF_PERICENTER = 357.2948
MEAN_ANOMALY   = 2.8135

EPHEMERIS_TYPE = 0
CLASSIFICATION_TYPE = U
NORAD_CAT_ID   = 43682
ELEMENT_SET_NO = 999
REV_AT_EPOCH   = 39102
BSTAR          = .78597E-3
MEAN_MOTION_DOT = .28678E-3
MEAN_MOTION_DDOT = 0

CCSDS_OMM_VERS = 2.0
CREATION_DATE  = 
ORIGINATOR     = 

OBJECT_NAME    = SAOCOM 1B
OBJECT_ID      = 2020-059A
CENTER_NAME    = EARTH
REF_FRAME      = TEME
TIME_SYSTEM    = UTC
MEAN_ELEMENT_THEORY = SGP/SGP4

EPOCH          = 2025-12-03T20:37:19.519680
MEAN_MOTION    = 14.82143557
ECCENTRICITY   = .0001267
INCLINATION    = 97.8843
RA_OF_ASC_NODE = 161.5119
ARG_OF_PERICENTER = 87.1576
MEAN_ANOMALY   = 272.9782

EPHEMERIS_TYPE = 0
CLASSIFICATION_TYPE = U
NORAD_CAT_ID   = 46265
ELEMENT_SET_NO = 999
REV_AT_EPOCH   = 28455
BSTAR          = .9781E-4
MEAN_MOTION_DOT = .726E-5
MEAN_MOTION_DDOT = 0

CCSDS_OMM_VERS = 2.0
CREATION_DATE  = 
ORIGINATOR     = 

OBJECT_NAME    = CSS (TIANHE)
OBJECT_ID      = 2021-035A
CENTER_NAME    = EARTH
REF_FRAME      = TEME
TIME_SYSTEM    = UTC
MEAN_ELEMENT_THEORY = SGP/SGP4

EPOCH          = 2025-12-03T17:53:39.446880
MEAN_MOTION    = 15.58598848
ECCENTRICITY   = .0010069
INCLINATION    = 41.4679
RA_OF_ASC_NODE = 71.2873
ARG_OF_PERICENTER = 322.1315
MEAN_ANOMALY   = 37.8814

EPHEMERIS_TYPE = 0
CLASSIFICATION_TYPE = U
NORAD_CAT_ID   = 48274
ELEMENT_SET_NO = 999
REV_AT_EPOCH   = 26262
BSTAR          = .35133E-3
MEAN_MOTION_DOT = .27527E-3
MEAN_MOTION_DDOT = 0

CCSDS_OMM_VERS = 2.0
CREATION_DATE  = 
ORIGINATOR     = 

OBJECT_NAME    = COSMOS 2550
OBJECT_ID      = 2021-056A
CENTER_NAME    = EARTH
REF_FRAME      = TEME
TIME_SYSTEM    = UTC
MEAN_ELEMENT_THEORY = SGP/SGP4

EPOCH          = 2025-12-03T20:35:15.800928
MEAN_MOTION    = 15.33827391
ECCENTRICITY   = .0008342
INCLINATION    = 67.1455
RA_OF_ASC_NODE = 330.8001
ARG_OF_PERICENTER = 270.0456
MEAN_ANOMALY   = 89.9743

EPHEMERIS_TYPE = 0
CLASSIFICATION_TYPE = U
NORAD_CAT_ID   = 48865
ELEMENT_SET_NO = 999
REV_AT_EPOCH   = 24876
BSTAR          = .18307E-5
MEAN_MOTION_DOT = -.131E-5
MEAN_MOTION_DDOT = 0

CCSDS_OMM_VERS = 2.0
CREATION_DATE  = 
ORIGINATOR     = 

OBJECT_NAME    = CZ-2C R/B
OBJECT_ID      = 2022-058K
CENTER_NAME    = EARTH
REF_FRAME      = TEME
TIME_SYSTEM    = UTC
MEAN_ELEMENT_THEORY = SGP/SGP4

EPOCH          = 2025-12-03T07:39:43.296768
MEAN_MOTION    = 15.47789762
ECCENTRICITY   = .0046544
INCLINATION    = 50.1901
RA_OF_ASC_NODE = 91.5665
ARG_OF_PERICENTER = 159.6094
MEAN_ANOMALY   = 200.6745

EPHEMERIS_TYPE = 0
CLASSIFICATION_TYPE = U
NORAD_CAT_ID   = 52794
ELEMENT_SET_NO = 999
REV_AT_EPOCH   = 19517
BSTAR          = .64436E-3
MEAN_MOTION_DOT = .3525E-3
MEAN_MOTION_DDOT = 0

