SL-4 R/B                
1 39679U 14021B   25337.51022330  .00019126  00000+0  45499-3 0  9990
2 39679  51.6074  85.4364 0102583 113.0130 248.1711 15.36308154641479
ALOS-2                  
1 39766U 14029A   25337.54489948  .00003053  00000+0  41575-3 0  9993
2 39766  97.9237  72.5221 0001522 108.6147 251.5230 14.79450558622653
YAOGAN-29               
1 41038U 15069A   25337.84509144  .00000806  00000+0  10616-3 0  9992
2 41038  98.0228   0.9879 0000728   5.6766 354.4455 14.82866516541677
ASTRO-H (HITOMI)        
1 41337U 16012A   25337.49766972  .00005082  00000+0  30552-3 0  9990
2 41337  31.0001 256.9504 0009476  84.7657 275.4062 15.09257809537680
HXMT (HUIYAN)           
1 42758U 17034A   25337.83133818  .00006913  00000+0  35925-3 0  9991
2 42758  43.0124 189.0607 0032797 346.4273  13.5690 15.16132597467988
CZ-2C R/B               
1 43521U 18054D   25337.15080250  .00116887  00000+0  85487-3 0  9999
2 43521  35.1341 245.8114 0017526  42.6186 317.5903 15.71657055413544
SAOCOM 1A               
1 43641U 18076A   25337.82801823  .00000822  00000+0  10977-3 0  9990
2 43641  97.8847 162.3800 0001561  86.2585 273.8807 14.82161724387166
H-2A R/B                
1 43682U 18084L   25337.77423677  .00028678  00000+0  78597-3 0  9996
2 43682  98.8775 169.9979 0028073 357.2948   2.8135 15.36875171391025
SAOCOM 1B               
1 46265U 20059A   25337.85925370  .00000726  00000+0  97810-4 0  9991
2 46265  97.8843 161.5119 0001267  87.1576 272.9782 14.82143557284559
CSS (TIANHE)            
1 48274U 21035A   25337.74559545  .00027527  00000+0  35133-3 0  9990
2 48274  41.4679  71.2873 0010069 322.1315  37.8814 15.58598848262629
COSMOS 2550             
1 48865U 21056A   25337.85782177 -.00000131  00000+0  18307-5 0  9999
2 48865  67.1455 330.8001 0008342 270.0456  89.9743 15.33827391248766
CZ-2C R/B               
1 52794U 22058K   25337.31925112  .00035250  00000+0  64436-3 0  9998
2 52794  50.1901  91.5665 0046544 159.6094 200.6745 15.47789762195177
